{"type": "FeatureCollection", "features": [ {"type": "Feature", "properties": {"norad_id": 66630, "name": "STARLINK-35949", "group": "last-30-days", "lat": -33.00580962424276, "lon": 2.608041510979793, "alt_km": 422.9887484086794, "timestamp": "2025-12-19T18:58:40.326432+00:00", "meta": {"OBJECT_NAME": "STARLINK-35949", "OBJECT_ID": "2025-271P", "EPOCH": "2025-12-19T07:10:57.369504", "MEAN_MOTION": 15.49270928, "ECCENTRICITY": 5.879e-05, "INCLINATION": 53.1594, "RA_OF_ASC_NODE": 155.8155, "ARG_OF_PERICENTER": 87.9845, "MEAN_ANOMALY": 272.1232, "EPHEMERIS_TYPE": 0, "CLASSIFICATION_TYPE": "U", "NORAD_CAT_ID": 66630, "ELEMENT_SET_NO": 999, "REV_AT_EPOCH": 522, "BSTAR": 0.00099825389, "MEAN_MOTION_DOT": 0.0005539, "MEAN_MOTION_DDOT": 0}, "tle": {"line1": "1 66630U 25271P   25353.29927511  .00055390  00000+0  99825-3 0  9999", "line2": "2 66630  53.1594 155.8155 0000587  87.9845 272.1232 15.49270928  5226"}}, "geometry": {"type": "Point", "coordinates": [2.608041510979793, -33.00580962424276]}}, {"type": "Feature", "properties": {"norad_id": 66631, "name": "STARLINK-35965", "group": "last-30-days", "lat": -34.35950101815066, "lon": 4.298677590036895, "alt_km": 423.34231793467916, "timestamp": "2025-12-19T18:58:40.326443+00:00", "meta": {"OBJECT_NAME": "STARLINK-35965", "OBJECT_ID": "2025-271Q", "EPOCH": "2025-12-19T08:00:01.999872", "MEAN_MOTION": 15.49256689, "ECCENTRICITY": 0.0001084, "INCLINATION": 53.1585, "RA_OF_ASC_NODE": 155.6495, "ARG_OF_PERICENTER": 83.3252, "MEAN_ANOMALY": 108.9379, "EPHEMERIS_TYPE": 0, "CLASSIFICATION_TYPE": "U", "NORAD_CAT_ID": 66631, "ELEMENT_SET_NO": 999, "REV_AT_EPOCH": 530, "BSTAR": 0.0014864167, "MEAN_MOTION_DOT": 0.00082949, "MEAN_MOTION_DDOT": 0}, "tle": {"line1": "1 66631U 25271Q   25353.33335648  .00082949  00000+0  14864-2 0  9998", "line2": "2 66631  53.1585 155.6495 0001084  83.3252 108.9379 15.49256689  5302"}}, "geometry": {"type": "Point", "coordinates": [4.298677590036895, -34.35950101815066]}}, {"type": "Feature", "properties": {"norad_id": 66632, "name": "STARLINK-35973", "group": "last-30-days", "lat": 39.884042454696406, "lon": -167.40409834379744, "alt_km": 441.2555611517146, "timestamp": "2025-12-19T18:58:40.326453+00:00", "meta": {"OBJECT_NAME": "STARLINK-35973", "OBJECT_ID": "2025-271R", "EPOCH": "2025-12-19T04:43:34.688064", "MEAN_MOTION": 15.39632059, "ECCENTRICITY": 0.00011546, "INCLINATION": 53.1597, "RA_OF_ASC_NODE": 156.6016, "ARG_OF_PERICENTER": 88.7909, "MEAN_ANOMALY": 271.3228, "EPHEMERIS_TYPE": 0, "CLASSIFICATION_TYPE": "U", "NORAD_CAT_ID": 66632, "ELEMENT_SET_NO": 999, "REV_AT_EPOCH": 516, "BSTAR": 0.00070942748, "MEAN_MOTION_DOT": 0.00028093, "MEAN_MOTION_DDOT": 0}, "tle": {"line1": "1 66632U 25271R   25353.19692926  .00028093  00000+0  70943-3 0  9999", "line2": "2 66632  53.1597 156.6016 0001154  88.7909 271.3228 15.39632059  5162"}}, "geometry": {"type": "Point", "coordinates": [-167.40409834379744, 39.884042454696406]}}, {"type": "Feature", "properties": {"norad_id": 66633, "name": "STARLINK-35948", "group": "last-30-days", "lat": 41.0306309110388, "lon": -165.47677696021228, "alt_km": 441.015950060676, "timestamp": "2025-12-19T18:58:40.326463+00:00", "meta": {"OBJECT_NAME": "STARLINK-35948", "OBJECT_ID": "2025-271S", "EPOCH": "2025-12-19T04:43:06.126816", "MEAN_MOTION": 15.39640739, "ECCENTRICITY": 0.00011639, "INCLINATION": 53.1596, "RA_OF_ASC_NODE": 156.5986, "ARG_OF_PERICENTER": 89.9694, "MEAN_ANOMALY": 270.1444, "EPHEMERIS_TYPE": 0, "CLASSIFICATION_TYPE": "U", "NORAD_CAT_ID": 66633, "ELEMENT_SET_NO": 999, "REV_AT_EPOCH": 520, "BSTAR": 0.00089639978, "MEAN_MOTION_DOT": 0.00035648, "MEAN_MOTION_DDOT": 0}, "tle": {"line1": "1 66633U 25271S   25353.19659869  .00035648  00000+0  89640-3 0  9997", "line2": "2 66633  53.1596 156.5986 0001163  89.9694 270.1444 15.39640739  5207"}}, "geometry": {"type": "Point", "coordinates": [-165.47677696021228, 41.0306309110388]}}, {"type": "Feature", "properties": {"norad_id": 66634, "name": "STARLINK-35967", "group": "last-30-days", "lat": 52.17468756860491, "lon": -131.31787415339784, "alt_km": 439.4683843538496, "timestamp": "2025-12-19T18:58:40.326475+00:00", "meta": {"OBJECT_NAME": "STARLINK-35967", "OBJECT_ID": "2025-271T", "EPOCH": "2025-12-19T08:00:01.999872", "MEAN_MOTION": 15.39582029, "ECCENTRICITY": 9.903e-05, "INCLINATION": 53.1602, "RA_OF_ASC_NODE": 155.901, "ARG_OF_PERICENTER": 75.6587, "MEAN_ANOMALY": 348.6306, "EPHEMERIS_TYPE": 0, "CLASSIFICATION_TYPE": "U", "NORAD_CAT_ID": 66634, "ELEMENT_SET_NO": 999, "REV_AT_EPOCH": 523, "BSTAR": 0.0017592492, "MEAN_MOTION_DOT": 0.00070534, "MEAN_MOTION_DDOT": 0}, "tle": {"line1": "1 66634U 25271T   25353.33335648  .00070534  00000+0  17592-2 0  9999", "line2": "2 66634  53.1602 155.9010 0000990  75.6587 348.6306 15.39582029  5235"}}, "geometry": {"type": "Point", "coordinates": [-131.31787415339784, 52.17468756860491]}}, {"type": "Feature", "properties": {"norad_id": 66635, "name": "STARLINK-35955", "group": "last-30-days", "lat": 36.20157197847505, "lon": -59.63636563773195, "alt_km": 441.8853956517405, "timestamp": "2025-12-19T18:58:40.326485+00:00", "meta": {"OBJECT_NAME": "STARLINK-35955", "OBJECT_ID": "2025-271U", "EPOCH": "2025-12-19T08:00:01.999872", "MEAN_MOTION": 15.39585764, "ECCENTRICITY": 0.00011693, "INCLINATION": 53.16, "RA_OF_ASC_NODE": 155.8001, "ARG_OF_PERICENTER": 94.5667, "MEAN_ANOMALY": 21.2305, "EPHEMERIS_TYPE": 0, "CLASSIFICATION_TYPE": "U", "NORAD_CAT_ID": 66635, "ELEMENT_SET_NO": 999, "REV_AT_EPOCH": 530, "BSTAR": 0.0015696189, "MEAN_MOTION_DOT": 0.00062832, "MEAN_MOTION_DDOT": 0}, "tle": {"line1": "1 66635U 25271U   25353.33335648  .00062832  00000+0  15696-2 0  9995", "line2": "2 66635  53.1600 155.8001 0001169  94.5667  21.2305 15.39585764  5301"}}, "geometry": {"type": "Point", "coordinates": [-59.63636563773195, 36.20157197847505]}}, {"type": "Feature", "properties": {"norad_id": 66636, "name": "STARLINK-35968", "group": "last-30-days", "lat": 50.05905711605853, "lon": -89.85776923996919, "alt_km": 440.1195934004145, "timestamp": "2025-12-19T18:58:40.326499+00:00", "meta": {"OBJECT_NAME": "STARLINK-35968", "OBJECT_ID": "2025-271V", "EPOCH": "2025-12-19T08:00:01.999872", "MEAN_MOTION": 15.39600998, "ECCENTRICITY": 4.323e-05, "INCLINATION": 53.1602, "RA_OF_ASC_NODE": 155.8506, "ARG_OF_PERICENTER": 84.0891, "MEAN_ANOMALY": 5.9174, "EPHEMERIS_TYPE": 0, "CLASSIFICATION_TYPE": "U", "NORAD_CAT_ID": 66636, "ELEMENT_SET_NO": 999, "REV_AT_EPOCH": 530, "BSTAR": 0.0015799892, "MEAN_MOTION_DOT": 0.00063285, "MEAN_MOTION_DDOT": 0}, "tle": {"line1": "1 66636U 25271V   25353.33335648  .00063285  00000+0  15800-2 0  9996", "line2": "2 66636  53.1602 155.8506 0000432  84.0891   5.9174 15.39600998  5309"}}, "geometry": {"type": "Point", "coordinates": [-89.85776923996919, 50.05905711605853]}}, {"type": "Feature", "properties": {"norad_id": 66637, "name": "STARLINK-35953", "group": "last-30-days", "lat": 17.279665252172556, "lon": -39.894969264799684, "alt_km": 445.4407619878921, "timestamp": "2025-12-19T18:58:40.326510+00:00", "meta": {"OBJECT_NAME": "STARLINK-35953", "OBJECT_ID": "2025-271W", "EPOCH": "2025-12-19T08:00:01.999872", "MEAN_MOTION": 15.39587581, "ECCENTRICITY": 0.00010253, "INCLINATION": 53.1594, "RA_OF_ASC_NODE": 155.7478, "ARG_OF_PERICENTER": 76.5565, "MEAN_ANOMALY": 64.9923, "EPHEMERIS_TYPE": 0, "CLASSIFICATION_TYPE": "U", "NORAD_CAT_ID": 66637, "ELEMENT_SET_NO": 999, "REV_AT_EPOCH": 530, "BSTAR": 0.0015439921, "MEAN_MOTION_DOT": 0.00061795, "MEAN_MOTION_DDOT": 0}, "tle": {"line1": "1 66637U 25271W   25353.33335648  .00061795  00000+0  15440-2 0  9991", "line2": "2 66637  53.1594 155.7478 0001025  76.5565  64.9923 15.39587581  5309"}}, "geometry": {"type": "Point", "coordinates": [-39.894969264799684, 17.279665252172556]}}, {"type": "Feature", "properties": {"norad_id": 66638, "name": "STARLINK-35972", "group": "last-30-days", "lat": -23.041847255839052, "lon": -7.912350253450099, "alt_km": 447.4230142527831, "timestamp": "2025-12-19T18:58:40.326520+00:00", "meta": {"OBJECT_NAME": "STARLINK-35972", "OBJECT_ID": "2025-271X", "EPOCH": "2025-12-19T08:00:01.999872", "MEAN_MOTION": 15.42735002, "ECCENTRICITY": 0.00014533, "INCLINATION": 53.1589, "RA_OF_ASC_NODE": 155.6546, "ARG_OF_PERICENTER": 56.0572, "MEAN_ANOMALY": 132.8977, "EPHEMERIS_TYPE": 0, "CLASSIFICATION_TYPE": "U", "NORAD_CAT_ID": 66638, "ELEMENT_SET_NO": 999, "REV_AT_EPOCH": 530, "BSTAR": -0.044738274, "MEAN_MOTION_DOT": -0.01791629, "MEAN_MOTION_DDOT": 0}, "tle": {"line1": "1 66638U 25271X   25353.33335648 -.01791629  00000+0 -44738-1 0  9992", "line2": "2 66638  53.1589 155.6546 0001453  56.0572 132.8977 15.42735002  5306"}}, "geometry": {"type": "Point", "coordinates": [-7.912350253450099, -23.041847255839052]}}, {"type": "Feature", "properties": {"norad_id": 66639, "name": "STARLINK-35908", "group": "last-30-days", "lat": -42.02335025661279, "lon": 15.937645433731207, "alt_km": 427.32470216834736, "timestamp": "2025-12-19T18:58:40.326530+00:00", "meta": {"OBJECT_NAME": "STARLINK-35908", "OBJECT_ID": "2025-271Y", "EPOCH": "2025-12-18T18:43:29.288640", "MEAN_MOTION": 15.48774254, "ECCENTRICITY": 0.0001437, "INCLINATION": 53.1596, "RA_OF_ASC_NODE": 158.2632, "ARG_OF_PERICENTER": 60.2516, "MEAN_ANOMALY": 299.8636, "EPHEMERIS_TYPE": 0, "CLASSIFICATION_TYPE": "U", "NORAD_CAT_ID": 66639, "ELEMENT_SET_NO": 999, "REV_AT_EPOCH": 514, "BSTAR": -0.0048438706, "MEAN_MOTION_DOT": -0.00256344, "MEAN_MOTION_DDOT": 0}, "tle": {"line1": "1 66639U 25271Y   25352.78020010 -.00256344  00000+0 -48439-2 0  9997", "line2": "2 66639  53.1596 158.2632 0001437  60.2516 299.8636 15.48774254  5143"}}, "geometry": {"type": "Point", "coordinates": [15.937645433731207, -42.02335025661279]}}]}